CENTISPACE-1 OBJECT C   
1 68352U 26060C   26087.87105975  .00000031  00000+0  35349-4 0  9994
2 68352  54.9833   3.3646 0012578 314.7166  45.2808 14.75106888   927
